[
    {
        "Altitude(m)": 622200.1327266303,
        "Argument of Periapsis(deg)": 0.0,
        "Eccentricity": 0.0,
        "Inclination(deg)": 60.0,
        "Latitude(deg)": -52.16260867838529,
        "Longitude(deg)": -142.6393572827006,
        "Mean Anomaly(deg)": 294.5455,
        "RAAN(deg)": 5.0,
        "Satellite Name": "Test1 40",
        "Satellite Number": 40,
        "Semi-Major Axis(m)": 6980739.136638005,
        "Time(s)": 0
    },
    {
        "Altitude(m)": 622058.3009714576,
        "Argument of Periapsis(deg)": 0.00010418945913296404,
        "Eccentricity": 0.0,
        "Inclination(deg)": 60.0,
        "Latitude(deg)": -51.79935947932121,
        "Longitude(deg)": -141.87129676923487,
        "Mean Anomaly(deg)": 295.1656061454619,
        "RAAN(deg)": 4.999579950860257,
        "Satellite Name": "Test1 40",
        "Satellite Number": 40,
        "Semi-Major Axis(m)": 6980739.136638005,
        "Time(s)": 10
    }
]